LUCAS (JDRS-1)          
1 47202U 20089A   26061.83416683 -.00000252  00000+0  00000+0 0  9996
2 47202   0.0647 275.3339 0002839  60.9087 215.4105  1.00273605 19358
SXM-7                   
1 47240U 20096A   26061.36850308 -.00000223  00000+0  00000+0 0  9998
2 47240   0.0187 122.0310 0004024   7.7857  77.7989  1.00275144  6375
CMS-01                  
1 47256U 20099A   26061.65864066 -.00000181  00000+0  00000+0 0  9999
2 47256   0.0149 136.5446 0006539 152.2006 191.7769  1.00272363 19136
TURKSAT 5A              
1 47306U 21001A   26061.73687463  .00000137  00000+0  00000+0 0  9992
2 47306   0.0199 100.9178 0000147 199.6848 156.0918  1.00270284 18894
TIANTONG-1 3            
1 47321U 21003A   26061.70991772 -.00000170  00000+0  00000+0 0  9997
2 47321   1.8555 332.9880 0006622 340.6572 183.9058  1.00269909 18895
TJS-6                   
1 47613U 21010A   26061.69475442  .00000026  00000+0  00000+0 0  9997
2 47613   0.3248  90.8809 0003194 282.2043 215.9755  1.00270041 18741
SBIRS GEO-5 (USA 315)   
1 48618U 21042A   26061.79819039 -.00000283  00000+0  00000+0 0  9999
2 48618   5.2390 328.3273 0001558 356.8913 216.4750  1.00271490 17704
FENGYUN 4B              
1 48808U 21047A   26061.83864140 -.00000345  00000+0  00000+0 0  9992
2 48808   0.1882  76.8532 0008830 296.4496 193.7569  1.00265698 17509
SXM-8                   
1 48838U 21049A   26061.27197234 -.00000223  00000+0  00000+0 0  9993
2 48838   0.0258  60.0583 0004221 343.6903 129.0399  1.00274439 17525
TIANLIAN 1-05           
1 49011U 21063A   26061.91616514  .00000092  00000+0  00000+0 0  9994
2 49011   1.3196  81.5938 0004686 226.9565 198.7013  1.00270998 17014
STAR ONE D2             
1 49055U 21069A   26061.50292560 -.00000283  00000+0  00000+0 0  9997
2 49055   0.0155 132.8688 0001914 231.1859 267.2912  1.00290841 16861
EUTELSAT QUANTUM        
1 49056U 21069B   26061.52623905  .00000000  00000+0  00000+0 0  9997
2 49056   0.0187 128.2806 0002900 213.5571  55.6294  1.00271278 16853
ZHONGXING-2E            
1 49062U 21071A   26061.10837824 -.00000308  00000+0  00000+0 0  9990
2 49062   0.0222 118.0356 0000198 346.5104 192.3630  1.00267704 16967
TJS-7                   
1 49115U 21077A   26061.56844591 -.00000140  00000+0  00000+0 0  9998
2 49115   0.2326  88.3878 0001706 259.7203 277.3303  1.00269764  8489
CHINASAT 9B             
1 49125U 21080A   26061.89607069 -.00000329  00000+0  00000+0 0  9995
2 49125   0.0358 264.5724 0002164  53.6136 266.4758  1.00272331 16583
SHIJIAN-21 (SJ-21)      
1 49330U 21094A   26061.81760677 -.00000362  00000+0  00000+0 0  9992
2 49330   4.8614  61.7781 0048460 171.6129 349.4972  1.00268672  4298
SES-17                  
1 49332U 21095A   26061.57485928 -.00000289  00000+0  00000+0 0  9999
2 49332   0.0237  63.9843 0001054 272.0224 324.1771  1.00270170 16782
